QIANFAN-17              
1 60395U 24140S   25206.45485266  .00000113  00000+0  15620-3 0  9990
2 60395  88.9857 313.9101 0013262 246.5026 113.4731 13.50959158 49196
QIANFAN-18              
1 60396U 24140T   25206.50843605  .00000128  00000+0  18025-3 0  9990
2 60396  88.9850 313.4491 0013061 226.8217 133.1843 13.50954665 48580
QIANFAN-19              
1 61552U 24185A   25206.55753000  .00000417  00000+0  21154-3 0  9996
2 61552  88.9816  94.0233 0008976  46.7429 313.4505 14.14109628 49857
QIANFAN-20              
1 61553U 24185B   25206.47432874  .00000363  00000+0  20292-3 0  9993
2 61553  88.9816  94.2150 0008290  74.1957 286.0140 14.08662087 49742
QIANFAN-21              
1 61554U 24185C   25206.48203881  .00000536  00000+0  23454-3 0  9994
2 61554  88.9729  93.4264 0013102  96.2257 264.0428 14.22352830 50036
QIANFAN-22              
1 61555U 24185D   25206.61496443  .00000214  00000+0  17366-3 0  9996
2 61555  88.9801  94.6162 0009014  67.4610 292.7514 13.86233666 49528
QIANFAN-23              
1 61556U 24185E   25206.44678682  .00000472  00000+0  23189-3 0  9991
2 61556  88.9808  93.9105 0010090  56.0566 304.1580 14.16079471 49892
QIANFAN-24              
1 61557U 24185F   25206.60320149  .00000570  00000+0  24395-3 0  9991
2 61557  88.9788  93.5271 0011447  44.3609 315.8498 14.23556410 50086
